GLOBALSTAR M067         
1 32263U 07048A   25202.56156596 -.00000073  00000+0  17854-3 0  9997
2 32263  51.9738 295.3522 0001350  82.3585 290.6572 12.40674495813756
GLOBALSTAR M070         
1 32264U 07048B   25202.91442115 -.00000081  00000+0  12552-3 0  9991
2 32264  51.9766  22.7095 0000809  98.9948  48.3623 12.62320398818056
GLOBALSTAR M066         
1 32265U 07048C   25202.52732043 -.00000056  00000+0  33037-3 0  9994
2 32265  51.9630 287.1050 0004505  51.1036  53.6613 12.29948379819520
GLOBALSTAR M068         
1 32266U 07048D   25202.18960897 -.00000091  00000+0  71406-4 0  9999
2 32266  51.9858 198.6057 0000944 210.9166 231.1357 12.62826475821854
GLOBALSTAR M079         
1 37188U 10054A   25202.86948859 -.00000100  00000+0  19510-4 0  9996
2 37188  52.0051  34.2071 0000969  65.8690  41.0197 12.62265485680835
GLOBALSTAR M074         
1 37189U 10054B   25202.79649351 -.00000096  00000+0  44820-4 0  9990
2 37189  52.0029  33.7487 0000992  85.1659 288.2170 12.62266716681433
GLOBALSTAR M076         
1 37190U 10054C   25202.93196422 -.00000081  00000+0  12691-3 0  9998
2 37190  52.0042  33.5089 0001096  75.2590  74.8608 12.62263826681160
GLOBALSTAR M077         
1 37191U 10054D   25202.83952109 -.00000100  00000+0  23531-4 0  9998
2 37191  52.0095 350.6569 0000844  98.5281  51.8960 12.62268866682267
